SAUDISAT 1C (SO-50)     
1 27607U 02058C   23360.50551037  .00002249  00000+0  32402-3 0  9997
2 27607  64.5563  35.0074 0046017 180.2809 179.8277 14.78114293130643
CORIOLIS                
1 27640U 03001A   23360.60793944  .00000276  00000+0  15211-3 0  9996
2 27640  98.7146   5.6082 0013165 296.7081  63.2747 14.19368591 86017
CUTE-1 (CO-55)          
1 27844U 03031E   23360.50231942  .00000664  00000+0  31419-3 0  9998
2 27844  98.6783   4.9782 0008757 291.1433  68.8809 14.23013307 63088
CUBESAT XI-IV (CO-57)   
1 27848U 03031J   23360.51123106  .00000574  00000+0  27681-3 0  9991
2 27848  98.6816   5.3219 0008829 308.3778  51.6606 14.22491247 62897
MOZHAYETS 4 (RS-22)     
1 27939U 03042A   23360.80118203  .00002273  00000+0  39485-3 0  9991
2 27939  98.2655 149.6229 0011227 246.0174 242.2693 14.69133554 82815
IRS-P6 (RESOURCESAT-1)  
1 28051U 03046A   23360.81404278  .00000449  00000+0  16587-3 0  9993
2 28051  98.3355  59.4513 0060056 162.9708 261.8649 14.35925107 50927
SAUDISAT 2              
1 28371U 04025F   23360.79283285  .00000681  00000+0  16789-3 0  9998
2 28371  98.4604 326.4498 0025014 188.9860 171.0892 14.55205057 34326
COSMOS 2407             
1 28380U 04028A   23360.61881977  .00000115  00000+0  10258-3 0  9991
2 28380  82.9605  23.9255 0037854 259.0589 220.6805 13.76184516975785
COSMOS 2414             
1 28521U 05002A   23360.53467724  .00000116  00000+0  84250-4 0  9997
2 28521  82.9495   7.0422 0040876  27.9123 332.4220 13.87742447958501
INMARSAT 4-F1           
1 28628U 05009A   23360.78294497 -.00000083  00000+0  00000+0 0  9994
2 28628   4.0828  39.9337 0003783 251.5774 242.0511  1.00547004 68602
HAMSAT (VO-52)          
1 28650U 05017B   23360.53696733  .00005725  00000+0  52159-3 0  9993
2 28650  97.9694 338.5387 0020742 172.7073 187.4453 14.95387697 11021
NOAA 18                 
1 28654U 05018A   23360.81123530  .00000341  00000+0  20644-3 0  9992
2 28654  98.8932  74.1148 0014218 190.9980 169.0884 14.13086721958778
SJ-7                    
1 28737U 05024A   23360.59975783  .00006356  00000+0  47691-3 0  9994
2 28737  97.7683   0.2162 0020566 242.4617 117.4518 15.02831703 11486
CUBESAT XI-V            
1 28895U 05043F   23360.32947430  .00003130  00000+0  57107-3 0  9999
2 28895  98.1765 131.3449 0016017 182.7698 177.3419 14.66614889968964
CLOUDSAT                
1 29107U 06016A   23360.86828521  .00001165  00000+0  22885-3 0  9996
2 29107  98.3989 334.2031 0003424  23.9586 336.1774 14.64601896940738
CALIPSO                 
1 29108U 06016B   23360.57662607  .00002481  00000+0  47291-3 0  9996
2 29108  98.3994 333.4518 0001272  88.4438 271.6910 14.64940698940525
HINODE (SOLAR-B)        
1 29479U 06041A   23360.59151637  .00001308  00000+0  24745-3 0  9999
2 29479  98.0979  13.3396 0016792 269.4774  90.4505 14.65929703922343
METOP-A                 
1 29499U 06044A   23360.57388381  .00002430  00000+0  31578-3 0  9999
2 29499  98.3783  66.2549 0192350  57.2286  76.5262 14.69558769892428
SHIJIAN-6 02B (SJ-6 02B)
1 29506U 06046B   23360.77196227  .00002419  00000+0  21909-3 0  9992
2 29506  97.7559  22.2944 0002788 127.3653 232.7822 14.96312766935391
DMSP 5D-3 F17 (USA 191) 
1 29522U 06050A   23360.80325630  .00000303  00000+0  18099-3 0  9997
2 29522  98.7489   9.9320 0010873 112.3192 247.9135 14.14361438884688
LAPAN-TUBSAT            
1 29709U 07001A   23360.83076683  .00001200  00000+0  15241-3 0  9998
2 29709  98.0466 329.4008 0011258 241.8091 118.1986 14.83543419917104
CARTOSAT-2 (IRS-P7)     
1 29710U 07001B   23360.42175187  .00183058  13621-4  78322-3 0  9993
2 29710  97.8904 160.5439 0048512 212.1593 147.6714 15.83251164922356
HAIYANG-1B              
1 31113U 07010A   23360.56826444  .00000223  00000+0  10126-3 0  9999
2 31113  98.2944   5.5531 0013785   6.3184 353.8171 14.30517648871410
BEIDOU-2 M1             
1 31115U 07011A   23358.85993264  .00000012  00000+0  00000+0 0  9998
2 31115  51.3482 249.3676 0003011 358.9913   1.0865  1.77349192 60094
CAPE-1                  
1 31130U 07012P   23360.42203925  .00003563  00000+0  72154-3 0  9997
2 31130  98.3313 304.7490 0092130   7.2070 353.0430 14.59253432886250
AGILE                   
1 31135U 07013A   23350.08251854  .00107066  00000+0  57419-3 0  9998
2 31135   2.4639 161.3495 0003314 233.1200 126.8551 15.78206954561928
AIM                     
1 31304U 07015A   23360.43410347  .00043832  00000+0  10294-2 0  9991
2 31304  97.8892 314.2634 0001763 166.1403 193.9891 15.41898343916177
CBERS 2B                
1 32062U 07042A   23360.86900764  .00000475  00000+0  16200-3 0  9997
2 32062  98.2794 311.8611 0031514 174.1286 244.1009 14.40352179854652
COSMO-SKYMED 2          
1 32376U 07059A   23360.80274629  .00001019  00000+0  13445-3 0  9994
2 32376  97.8851 181.5018 0001377  82.7178 277.4192 14.82173462868266
CARTOSAT-2A             
1 32783U 08021A   23360.80964063  .00001494  00000+0  21059-3 0  9991
2 32783  97.8923  57.8849 0012711 156.6655 203.5135 14.78655341845381
CUTE-1.7+APD II (CO-65) 
1 32785U 08021C   23360.51972402  .00006790  00000+0  63592-3 0  9999
2 32785  97.7327 322.8886 0011508 174.7530 185.3813 14.94324360849591
COMPASS-1               
1 32787U 08021E   23360.41333964  .00015111  00000+0  10412-2 0  9993
2 32787  97.6047 333.2239 0013529  77.2553 283.0185 15.05865361851535
AAUSAT-II               
1 32788U 08021F   23360.45551981  .00017133  00000+0  10709-2 0  9994
2 32788  97.5795 336.5088 0009141  63.2582 296.9581 15.09478035852058
SEEDS II (CO-66)        
1 32791U 08021J   23360.42907732  .00008399  00000+0  68082-3 0  9996
2 32791  97.6797 328.2987 0010263 123.0750 237.1460 14.99896075850440
YUBILEINY (RS-30)       
1 32953U 08025A   23360.79648163  .00000033  00000+0  16227-3 0  9991
2 32953  82.5020 197.3048 0019789 122.8893 237.4095 12.43133529707580
FENGYUN 3A              
1 32958U 08026A   23360.78990699  .00000258  00000+0  14388-3 0  9995
2 32958  98.5829 308.1465 0008087 207.0574 153.0181 14.18984257807367
HUANJING 1A (HJ-1A)     
1 33320U 08041A   23360.82005413  .00002417  00000+0  33231-3 0  9999
2 33320  97.6355  11.4827 0019622 213.5648 146.4323 14.79066146824720
HUANJING 1B (HJ-1B)     
1 33321U 08041B   23360.80679111  .00001784  00000+0  24214-3 0  9997
2 33321  97.6344  15.9633 0037274 262.2495  97.4485 14.79596847824738
SHIJIAN-6 03A (SJ-6 03A)
1 33408U 08053A   23360.56551724  .00005459  00000+0  43208-3 0  9995
2 33408  97.8814 353.9850 0019442 193.9838 166.0849 15.00888013826645
SHIJIAN-6 03B (SJ-6 03B)
1 33409U 08053B   23360.77093008  .00002788  00000+0  24298-3 0  9995
2 33409  97.8750 351.9116 0015329 173.7479 186.3936 14.97642841827190
CHUANGXIN 1-02 (CX-1-02)
1 33434U 08056B   23360.75801180  .00000187  00000+0  90038-4 0  9999
2 33434  98.6853  16.3835 0013257 270.7736  89.1927 14.29724318789881
PRISM (HITOMI)          
1 33493U 09002B   23360.56605031  .00017968  00000+0  10525-2 0  9998
2 33493  98.2304  29.1733 0015399 116.5705 243.7103 15.11776999812755
STARS (KUKAI)           
1 33498U 09002G   23360.33781908  .00004820  00000+0  59063-3 0  9990
2 33498  98.1266 266.3426 0008592 250.7466 109.2818 14.83616240803885
KKS-1 (KISEKI)          
1 33499U 09002H   23360.60227845  .00002711  00000+0  38424-3 0  9991
2 33499  98.1545 255.2272 0008207 338.9586  21.1286 14.77863823802476
NOAA 19                 
1 33591U 09005A   23360.80970721  .00000300  00000+0  18556-3 0  9993
2 33591  99.0746  49.5754 0014625  63.1578 297.1087 14.12894121767142
YAOGAN 6                
1 34839U 09021A   23360.84354866  .00016974  00000+0  41029-3 0  9992
2 34839  97.1510 325.8931 0022854  91.6953 268.6912 15.40940614816707
UK-DMC 2                
1 35683U 09041C   23360.77802822  .00001575  00000+0  25422-3 0  9994
2 35683  97.7545 150.9232 0001065  87.2172 272.9158 14.72699329773480
METEOR-M 1              
1 35865U 09049A   23360.84739754  .00000236  00000+0  12475-3 0  9992
2 35865  98.6093 320.8575 0003224  60.1882 299.9617 14.22606124740923
OCEANSAT-2              
1 35931U 09051A   23360.76371182  .00000064  00000+0  69820-4 0  9993
2 35931  98.2936  61.1044 0015292 266.5685  93.3732 13.99425596752962
SWISSCUBE               
1 35932U 09051B   23360.62016014  .00002102  00000+0  46435-3 0  9990
2 35932  98.4936 235.3122 0008160 127.4208 232.7734 14.58362892757296
BEESAT-1                
1 35933U 09051C   23360.66756838  .00001757  00000+0  39122-3 0  9990
2 35933  98.4867 236.4821 0006220 136.4003 223.7688 14.58189442757416
ITUPSAT1                
1 35935U 09051E   23360.14915658  .00001640  00000+0  37390-3 0  9998
2 35935  98.4966 235.8217 0008335 145.8463 214.3272 14.57193632756917
DMSP 5D-3 F18 (USA 210) 
1 35951U 09057A   23360.83377247  .00000449  00000+0  25933-3 0  9990
2 35951  98.7929 333.7385 0010373 304.1541  55.8648 14.13947783731861
PROBA-2                 
1 36037U 09059B   23360.49858854  .00000691  00000+0  17542-3 0  9994
2 36037  98.2242 181.9173 0013198 185.9355 174.1687 14.53731101750176
YAOGAN 7                
1 36110U 09069A   23360.60251637  .00001024  00000+0  15611-3 0  9992
2 36110  98.1291 230.6527 0026892  65.9095 294.4923 14.75867660756280
XIWANG-1 (HOPE-1)       
1 36122U 09072B   23360.44741331 -.00000015  00000+0  74806-4 0  9998
2 36122 100.2693 318.4873 0007848 138.0895 222.0820 13.16392822674091
RADUGA-1M 2             
1 36358U 10002A   23360.60089963 -.00000176  00000+0  00000+0 0  9996
2 36358   1.2703  90.8284 0003293 165.9724 139.3826  1.00272930 41025
COSMOS 2463             
1 36519U 10017A   23360.58311137  .00000094  00000+0  86997-4 0  9991
2 36519  82.9599 193.5735 0037286 116.4414 307.5354 13.71535167684068
CARTOSAT-2B             
1 36795U 10035A   23360.77900061  .00001469  00000+0  20716-3 0  9991
2 36795  97.8867  57.6171 0011801 237.8325 122.1742 14.78679069726422
